OBJECT_NAME,OBJECT_ID,EPOCH,MEAN_MOTION,ECCENTRICITY,INCLINATION,RA_OF_ASC_NODE,ARG_OF_PERICENTER,MEAN_ANOMALY,EPHEMERIS_TYPE,CLASSIFICATION_TYPE,NORAD_CAT_ID,ELEMENT_SET_NO,REV_AT_EPOCH,BSTAR,MEAN_MOTION_DOT,MEAN_MOTION_DDOT
STARLINK-32827,2025-034Q,2026-07-17T21:56:01.087872,15.34395094,.00013045,53.1599,23.9793,77.2136,282.9013,0,U,63043,999,7887,.47387336E-3,.15665E-3,0
STARLINK-32735,2025-034R,2026-07-17T21:28:45.104736,15.34401722,.00012171,53.1591,23.8633,94.0779,266.0363,0,U,63044,999,7887,.33740956E-3,.11041E-3,0
STARLINK-32828,2025-034S,2026-07-17T21:53:41.704800,15.34397004,.00009355,53.1609,25.3852,73.2634,286.8471,0,U,63045,999,7885,.3006584E-3,.9794E-4,0
STARLINK-32738,2025-034T,2026-07-17T18:30:08.845344,15.34396612,.00006744,53.1609,12.4352,71.0708,289.0368,0,U,63046,999,7902,.29690454E-3,.9667E-4,0
STARLINK-32590,2025-034U,2026-07-17T21:55:43.785408,15.30208014,.00011523,53.1591,13.3205,124.6540,235.4570,0,U,63047,999,7901,.39322959E-3,.11308E-3,0
STARLINK-32790,2025-034V,2026-07-17T18:45:17.481312,15.34401040,.00009703,53.1594,12.4975,93.0799,267.0315,0,U,63048,999,7902,.25633822E-3,.8295E-4,0
STARLINK-32829,2025-034W,2026-07-17T21:52:59.312640,15.34409654,.00008774,53.1600,23.9651,91.5018,268.6085,0,U,63049,999,7887,.26021168E-3,.8428E-4,0
STARLINK-32816,2025-034X,2026-07-17T18:42:22.377024,15.34401371,.00012857,53.1609,24.5563,96.2403,263.8746,0,U,63050,999,7885,.33959538E-3,.11115E-3,0
STARLINK-32835,2025-034Y,2026-07-17T21:31:46.975008,15.34396068,.00012584,53.1592,23.8785,97.1044,263.0102,0,U,63051,999,7887,.17707044E-3,.561E-4,0
STARLINK-11550 [DTC],2025-035A,2026-07-17T08:07:02.170848,15.70902490,.0001304,42.9988,313.6504,257.0300,103.0422,0,U,63052,999,8161,.82129E-3,.106575E-2,0
STARLINK-11563 [DTC],2025-035B,2026-07-17T14:20:55.483296,15.70837695,.0000799,42.9996,312.1584,226.6702,133.4099,0,U,63053,999,8154,.79226E-3,.102459E-2,0
STARLINK-11347 [DTC],2025-035C,2026-07-17T16:38:21.512256,15.70850451,.00021355,43.0011,312.0317,271.1900,88.8723,0,U,63054,999,8166,.76741963E-3,.99253E-3,0
STARLINK-11558 [DTC],2025-035D,2026-07-17T16:53:27.803328,15.70825447,.00016478,42.9986,311.2212,253.6226,106.4461,0,U,63055,999,8156,.95432223E-3,.123768E-2,0
STARLINK-11392 [DTC],2025-035E,2026-07-17T16:23:04.111008,15.70833312,.00015804,42.9989,311.9437,280.9286,79.1404,0,U,63056,999,8166,.78978519E-3,.102117E-2,0
STARLINK-11406 [DTC],2025-035F,2026-07-17T16:00:07.706304,15.70841274,.00020477,43.0017,311.8140,263.4542,96.6093,0,U,63057,999,8154,.74157723E-3,.95818E-3,0
STARLINK-11418 [DTC],2025-035G,2026-07-17T16:46:00.339456,15.70951375,.00011051,42.9980,312.0737,339.6768,20.4055,0,U,63058,999,8154,.10474243E-2,.136823E-2,0
STARLINK-11509 [DTC],2025-035H,2026-07-17T16:30:42.580512,15.70853983,.00021515,42.9997,311.9857,261.7017,98.3607,0,U,63059,999,8154,.86252307E-3,.111795E-2,0
STARLINK-11403 [DTC],2025-035J,2026-07-17T14:43:51.819744,15.70849194,.0000537,42.9982,312.2808,266.3690,93.7116,0,U,63060,999,8165,.8315E-3,.107676E-2,0
STARLINK-11409 [DTC],2025-035K,2026-07-17T16:24:22.800672,15.70836995,.00013908,43.0003,311.9483,276.2669,83.8040,0,U,63061,999,8166,.82498714E-3,.106764E-2,0
STARLINK-11412 [DTC],2025-035L,2026-07-17T16:07:46.477344,15.70851820,.00021336,43.0010,311.8534,269.6493,90.4131,0,U,63062,999,8166,.76999408E-3,.99597E-3,0
STARLINK-11399 [DTC],2025-035M,2026-07-17T15:37:11.699904,15.70849611,.00013839,42.9992,311.6818,276.2351,83.8359,0,U,63063,999,8166,.95701873E-3,.124251E-2,0
STARLINK-11408 [DTC],2025-035N,2026-07-17T07:51:44.659872,15.70908261,.000174,42.9993,313.5569,272.9476,87.1192,0,U,63064,999,8161,.10721E-2,.139862E-2,0
STARLINK-33635,2025-035P,2026-07-17T19:58:11.229888,15.27584810,.00006978,43.0005,132.0798,307.2302,52.8486,0,U,63065,999,7963,.31355E-3,.8377E-4,0
STARLINK-33622,2025-035Q,2026-07-17T21:06:25.702560,15.27597228,.00014093,43.0027,131.5655,265.6362,94.4328,0,U,63066,999,7964,.43621933E-3,.11767E-3,0
STARLINK-33628,2025-035R,2026-07-17T20:24:05.441472,15.27580768,.00005044,42.9989,132.2121,280.7964,79.2831,0,U,63067,999,7963,.22276734E-3,.5873E-4,0
STARLINK-33627,2025-035S,2026-07-17T20:12:59.205024,15.27596318,.00003317,42.9947,132.1506,345.1580,14.9262,0,U,63068,999,7962,.53569868E-3,.14516E-3,0
STARLINK-33620,2025-035T,2026-07-17T20:07:26.260032,15.27581861,.00007531,42.9972,132.1204,282.5502,77.5266,0,U,63069,999,7962,.29847366E-3,.7961E-4,0
STARLINK-33604,2025-035U,2026-07-17T20:44:26.714112,15.27587988,.00002081,42.9993,132.3268,310.1288,49.9545,0,U,63070,999,7962,.55857161E-3,.15144E-3,0
STARLINK-33624,2025-035V,2026-07-17T19:36:07.302816,15.30252467,.00025446,43.0004,128.4928,200.3957,159.6795,0,U,63071,999,7956,.86055163E-3,.25529E-3,0
STARLINK-33623,2025-035W,2026-07-17T20:35:11.443776,15.27582548,.00008706,42.9994,132.2727,276.7087,83.3666,0,U,63072,999,7963,.23742977E-3,.6278E-4,0
