STARLINK-32827          
1 63043U 25034Q   26198.91390148  .00015665  00000+0  47387-3 0  9995
2 63043  53.1599  23.9793 0001304  77.2136 282.9013 15.34395094 78875
STARLINK-32735          
1 63044U 25034R   26198.89496649  .00011041  00000+0  33741-3 0  9999
2 63044  53.1591  23.8633 0001217  94.0779 266.0363 15.34401722 78870
STARLINK-32828          
1 63045U 25034S   26198.91228825  .00009794  00000+0  30066-3 0  9991
2 63045  53.1609  25.3852 0000935  73.2634 286.8471 15.34397004 78851
STARLINK-32738          
1 63046U 25034T   26198.77093571  .00009667  00000+0  29690-3 0  9994
2 63046  53.1609  12.4352 0000674  71.0708 289.0368 15.34396612 79026
STARLINK-32590          
1 63047U 25034U   26198.91370122  .00011308  00000+0  39323-3 0  9990
2 63047  53.1591  13.3205 0001152 124.6540 235.4570 15.30208014 79018
STARLINK-32790          
1 63048U 25034V   26198.78145233  .00008295  00000+0  25634-3 0  9990
2 63048  53.1594  12.4975 0000970  93.0799 267.0315 15.34401040 79025
STARLINK-32829          
1 63049U 25034W   26198.91179760  .00008428  00000+0  26021-3 0  9997
2 63049  53.1600  23.9651 0000877  91.5018 268.6085 15.34409654 78877
STARLINK-32816          
1 63050U 25034X   26198.77942566  .00011115  00000+0  33960-3 0  9992
2 63050  53.1609  24.5563 0001285  96.2403 263.8746 15.34401371 78858
STARLINK-32835          
1 63051U 25034Y   26198.89707147  .00005610  00000+0  17707-3 0  9994
2 63051  53.1592  23.8785 0001258  97.1044 263.0102 15.34396068 78875
STARLINK-11550 [DTC]    
1 63052U 25035A   26198.33821957  .00106575  00000+0  82129-3 0  9993
2 63052  42.9988 313.6504 0001304 257.0300 103.0422 15.70902490 81610
STARLINK-11563 [DTC]    
1 63053U 25035B   26198.59786439  .00102459  00000+0  79226-3 0  9998
2 63053  42.9996 312.1584 0000799 226.6702 133.4099 15.70837695 81540
STARLINK-11347 [DTC]    
1 63054U 25035C   26198.69330454  .00099253  00000+0  76742-3 0  9999
2 63054  43.0011 312.0317 0002135 271.1900  88.8723 15.70850451 81660
STARLINK-11558 [DTC]    
1 63055U 25035D   26198.70379402  .00123768  00000+0  95432-3 0  9994
2 63055  42.9986 311.2212 0001647 253.6226 106.4461 15.70825447 81560
STARLINK-11392 [DTC]    
1 63056U 25035E   26198.68268647  .00102117  00000+0  78979-3 0  9992
2 63056  42.9989 311.9437 0001580 280.9286  79.1404 15.70833312 81669
STARLINK-11406 [DTC]    
1 63057U 25035F   26198.66675586  .00095818  00000+0  74158-3 0  9999
2 63057  43.0017 311.8140 0002047 263.4542  96.6093 15.70841274 81545
STARLINK-11418 [DTC]    
1 63058U 25035G   26198.69861504  .00136823  00000+0  10474-2 0  9992
2 63058  42.9980 312.0737 0001105 339.6768  20.4055 15.70951375 81545
STARLINK-11509 [DTC]    
1 63059U 25035H   26198.68799283  .00111795  00000+0  86252-3 0  9995
2 63059  42.9997 311.9857 0002151 261.7017  98.3607 15.70853983 81542
STARLINK-11403 [DTC]    
1 63060U 25035J   26198.61379421  .00107676  00000+0  83150-3 0  9995
2 63060  42.9982 312.2808 0000537 266.3690  93.7116 15.70849194 81657
STARLINK-11409 [DTC]    
1 63061U 25035K   26198.68359723  .00106764  00000+0  82499-3 0  9998
2 63061  43.0003 311.9483 0001390 276.2669  83.8040 15.70836995 81665
STARLINK-11412 [DTC]    
1 63062U 25035L   26198.67206571  .00099597  00000+0  76999-3 0  9993
2 63062  43.0010 311.8534 0002133 269.6493  90.4131 15.70851820 81666
STARLINK-11399 [DTC]    
1 63063U 25035M   26198.65082986  .00124251  00000+0  95702-3 0  9993
2 63063  42.9992 311.6818 0001383 276.2351  83.8359 15.70849611 81663
STARLINK-11408 [DTC]    
1 63064U 25035N   26198.32760023  .00139862  00000+0  10721-2 0  9994
2 63064  42.9993 313.5569 0001740 272.9476  87.1192 15.70908261 81611
STARLINK-33635          
1 63065U 25035P   26198.83207442  .00008377  00000+0  31355-3 0  9995
2 63065  43.0005 132.0798 0000697 307.2302  52.8486 15.27584810 79632
STARLINK-33622          
1 63066U 25035Q   26198.87946415  .00011767  00000+0  43622-3 0  9997
2 63066  43.0027 131.5655 0001409 265.6362  94.4328 15.27597228 79643
STARLINK-33628          
1 63067U 25035R   26198.85006298  .00005873  00000+0  22277-3 0  9996
2 63067  42.9989 132.2121 0000504 280.7964  79.2831 15.27580768 79636
STARLINK-33627          
1 63068U 25035S   26198.84235191  .00014516  00000+0  53570-3 0  9996
2 63068  42.9947 132.1506 0000331 345.1580  14.9262 15.27596318 79626
STARLINK-33620          
1 63069U 25035T   26198.83849838  .00007961  00000+0  29847-3 0  9991
2 63069  42.9972 132.1204 0000753 282.5502  77.5266 15.27581861 79622
STARLINK-33604          
1 63070U 25035U   26198.86419808  .00015144  00000+0  55857-3 0  9998
2 63070  42.9993 132.3268 0000208 310.1288  49.9545 15.27587988 79622
STARLINK-33624          
1 63071U 25035V   26198.81675119  .00025529  00000+0  86055-3 0  9995
2 63071  43.0004 128.4928 0002544 200.3957 159.6795 15.30252467 79569
STARLINK-33623          
1 63072U 25035W   26198.85777134  .00006278  00000+0  23743-3 0  9995
2 63072  42.9994 132.2727 0000870 276.7087  83.3666 15.27582548 79637
